{"type": "FeatureCollection", "features": [{"type": "Feature", "properties": {"norad_id": 25590, "name": "COSMOS 2361", "group": "musson", "lat": 25.49816041380641, "lon": 163.3115680697398, "alt_km": 998.7736775122921, "timestamp": "2025-12-09T04:51:47.763024+00:00", "meta": {"OBJECT_NAME": "COSMOS 2361", "OBJECT_ID": "1998-076A", "EPOCH": "2025-12-08T18:27:48.199104", "MEAN_MOTION": 13.73216876, "ECCENTRICITY": 0.0030064, "INCLINATION": 82.9338, "RA_OF_ASC_NODE": 347.0233, "ARG_OF_PERICENTER": 277.1431, "MEAN_ANOMALY": 256.3546, "EPHEMERIS_TYPE": 0, "CLASSIFICATION_TYPE": "U", "NORAD_CAT_ID": 25590, "ELEMENT_SET_NO": 999, "REV_AT_EPOCH": 35056, "BSTAR": 8.985e-05, "MEAN_MOTION_DOT": 9.8e-07, "MEAN_MOTION_DDOT": 0}, "tle": {"line1": "1 25590U 98076A   25342.76930786  .00000098  00000+0  89850-4 0  9993", "line2": "2 25590  82.9338 347.0233 0030064 277.1431 256.3546 13.73216876350560"}}, "geometry": {"type": "Point", "coordinates": [163.3115680697398, 25.49816041380641]}}, {"type": "Feature", "properties": {"norad_id": 26818, "name": "COSMOS 2378", "group": "musson", "lat": -35.148555123350995, "lon": -172.63745865485527, "alt_km": 967.2554553371046, "timestamp": "2025-12-09T04:51:47.763046+00:00", "meta": {"OBJECT_NAME": "COSMOS 2378", "OBJECT_ID": "2001-023A", "EPOCH": "2025-12-08T19:55:11.034048", "MEAN_MOTION": 13.74141511, "ECCENTRICITY": 0.0032184, "INCLINATION": 82.9273, "RA_OF_ASC_NODE": 2.6241, "ARG_OF_PERICENTER": 215.9787, "MEAN_ANOMALY": 316.9629, "EPHEMERIS_TYPE": 0, "CLASSIFICATION_TYPE": "U", "NORAD_CAT_ID": 26818, "ELEMENT_SET_NO": 999, "REV_AT_EPOCH": 22869, "BSTAR": 6.0047e-05, "MEAN_MOTION_DOT": 7.2e-07, "MEAN_MOTION_DDOT": 0}, "tle": {"line1": "1 26818U 01023A   25342.82998882  .00000072  00000+0  60047-4 0  9990", "line2": "2 26818  82.9273   2.6241 0032184 215.9787 316.9629 13.74141511228691"}}, "geometry": {"type": "Point", "coordinates": [-172.63745865485527, -35.148555123350995]}}, {"type": "Feature", "properties": {"norad_id": 27436, "name": "COSMOS 2389", "group": "musson", "lat": 48.63854904132938, "lon": -42.31667063173302, "alt_km": 943.9483301245009, "timestamp": "2025-12-09T04:51:47.763059+00:00", "meta": {"OBJECT_NAME": "COSMOS 2389", "OBJECT_ID": "2002-026A", "EPOCH": "2025-12-08T20:12:15.604128", "MEAN_MOTION": 13.75154077, "ECCENTRICITY": 0.0047706, "INCLINATION": 82.9499, "RA_OF_ASC_NODE": 309.8704, "ARG_OF_PERICENTER": 71.3304, "MEAN_ANOMALY": 352.9753, "EPHEMERIS_TYPE": 0, "CLASSIFICATION_TYPE": "U", "NORAD_CAT_ID": 27436, "ELEMENT_SET_NO": 999, "REV_AT_EPOCH": 18095, "BSTAR": 9.9818e-05, "MEAN_MOTION_DOT": 1.12e-06, "MEAN_MOTION_DDOT": 0}, "tle": {"line1": "1 27436U 02026A   25342.84184727  .00000112  00000+0  99818-4 0  9991", "line2": "2 27436  82.9499 309.8704 0047706  71.3304 352.9753 13.75154077180955"}}, "geometry": {"type": "Point", "coordinates": [-42.31667063173302, 48.63854904132938]}}, {"type": "Feature", "properties": {"norad_id": 27818, "name": "COSMOS 2398", "group": "musson", "lat": 36.50329437040442, "lon": -79.43941538524666, "alt_km": 985.9678868492865, "timestamp": "2025-12-09T04:51:47.763071+00:00", "meta": {"OBJECT_NAME": "COSMOS 2398", "OBJECT_ID": "2003-023A", "EPOCH": "2025-12-08T20:11:46.742208", "MEAN_MOTION": 13.72385122, "ECCENTRICITY": 0.0032442, "INCLINATION": 82.9482, "RA_OF_ASC_NODE": 275.5709, "ARG_OF_PERICENTER": 122.2388, "MEAN_ANOMALY": 291.8896, "EPHEMERIS_TYPE": 0, "CLASSIFICATION_TYPE": "U", "NORAD_CAT_ID": 27818, "ELEMENT_SET_NO": 999, "REV_AT_EPOCH": 12763, "BSTAR": 9.8785e-05, "MEAN_MOTION_DOT": 1.06e-06, "MEAN_MOTION_DDOT": 0}, "tle": {"line1": "1 27818U 03023A   25342.84151322  .00000106  00000+0  98785-4 0  9993", "line2": "2 27818  82.9482 275.5709 0032442 122.2388 291.8896 13.72385122127633"}}, "geometry": {"type": "Point", "coordinates": [-79.43941538524666, 36.50329437040442]}}, {"type": "Feature", "properties": {"norad_id": 28380, "name": "COSMOS 2407", "group": "musson", "lat": -3.560917934571905, "lon": 35.95190689829727, "alt_km": 994.7151987257212, "timestamp": "2025-12-09T04:51:47.763082+00:00", "meta": {"OBJECT_NAME": "COSMOS 2407", "OBJECT_ID": "2004-028A", "EPOCH": "2025-12-08T16:00:58.962240", "MEAN_MOTION": 13.76313059, "ECCENTRICITY": 0.0040444, "INCLINATION": 82.9612, "RA_OF_ASC_NODE": 215.9077, "ARG_OF_PERICENTER": 65.8914, "MEAN_ANOMALY": 346.471, "EPHEMERIS_TYPE": 0, "CLASSIFICATION_TYPE": "U", "NORAD_CAT_ID": 28380, "ELEMENT_SET_NO": 999, "REV_AT_EPOCH": 7367, "BSTAR": 9.5579e-05, "MEAN_MOTION_DOT": 1.09e-06, "MEAN_MOTION_DDOT": 0}, "tle": {"line1": "1 28380U 04028A   25342.66734910  .00000109  00000+0  95579-4 0  9995", "line2": "2 28380  82.9612 215.9077 0040444  65.8914 346.4710 13.76313059 73677"}}, "geometry": {"type": "Point", "coordinates": [35.95190689829727, -3.560917934571905]}}, {"type": "Feature", "properties": {"norad_id": 28521, "name": "COSMOS 2414", "group": "musson", "lat": -59.92569852502459, "lon": 174.99486054469446, "alt_km": 968.8117402312564, "timestamp": "2025-12-09T04:51:47.763094+00:00", "meta": {"OBJECT_NAME": "COSMOS 2414", "OBJECT_ID": "2005-002A", "EPOCH": "2025-12-08T20:30:22.924800", "MEAN_MOTION": 13.87902268, "ECCENTRICITY": 0.0040669, "INCLINATION": 82.9496, "RA_OF_ASC_NODE": 187.5979, "ARG_OF_PERICENTER": 150.5878, "MEAN_ANOMALY": 209.7586, "EPHEMERIS_TYPE": 0, "CLASSIFICATION_TYPE": "U", "NORAD_CAT_ID": 28521, "ELEMENT_SET_NO": 999, "REV_AT_EPOCH": 5741, "BSTAR": 8.5087e-05, "MEAN_MOTION_DOT": 1.18e-06, "MEAN_MOTION_DDOT": 0}, "tle": {"line1": "1 28521U 05002A   25342.85443200  .00000118  00000+0  85087-4 0  9998", "line2": "2 28521  82.9496 187.5979 0040669 150.5878 209.7586 13.87902268 57413"}}, "geometry": {"type": "Point", "coordinates": [174.99486054469446, -59.92569852502459]}}, {"type": "Feature", "properties": {"norad_id": 32052, "name": "COSMOS 2429", "group": "musson", "lat": -54.7249780528866, "lon": 175.9473570500072, "alt_km": 1016.9171916583, "timestamp": "2025-12-09T04:51:47.763104+00:00", "meta": {"OBJECT_NAME": "COSMOS 2429", "OBJECT_ID": "2007-038A", "EPOCH": "2025-12-08T17:14:47.181696", "MEAN_MOTION": 13.75148788, "ECCENTRICITY": 0.0039433, "INCLINATION": 82.9803, "RA_OF_ASC_NODE": 346.2734, "ARG_OF_PERICENTER": 48.8081, "MEAN_ANOMALY": 311.6464, "EPHEMERIS_TYPE": 0, "CLASSIFICATION_TYPE": "U", "NORAD_CAT_ID": 32052, "ELEMENT_SET_NO": 999, "REV_AT_EPOCH": 91547, "BSTAR": 7.0707e-05, "MEAN_MOTION_DOT": 8.3e-07, "MEAN_MOTION_DDOT": 0}, "tle": {"line1": "1 32052U 07038A   25342.71860164  .00000083  00000+0  70707-4 0  9994", "line2": "2 32052  82.9803 346.2734 0039433  48.8081 311.6464 13.75148788915477"}}, "geometry": {"type": "Point", "coordinates": [175.9473570500072, -54.7249780528866]}}, {"type": "Feature", "properties": {"norad_id": 35635, "name": "COSMOS 2454", "group": "musson", "lat": -36.39924159322229, "lon": 166.09602475552458, "alt_km": 942.5822408935783, "timestamp": "2025-12-09T04:51:47.763115+00:00", "meta": {"OBJECT_NAME": "COSMOS 2454", "OBJECT_ID": "2009-039A", "EPOCH": "2025-12-08T18:43:22.690272", "MEAN_MOTION": 13.8992788, "ECCENTRICITY": 0.0020481, "INCLINATION": 82.9556, "RA_OF_ASC_NODE": 171.6466, "ARG_OF_PERICENTER": 84.3022, "MEAN_ANOMALY": 286.3458, "EPHEMERIS_TYPE": 0, "CLASSIFICATION_TYPE": "U", "NORAD_CAT_ID": 35635, "ELEMENT_SET_NO": 999, "REV_AT_EPOCH": 83095, "BSTAR": 6.8598e-05, "MEAN_MOTION_DOT": 1.01e-06, "MEAN_MOTION_DDOT": 0}, "tle": {"line1": "1 35635U 09039A   25342.78012373  .00000101  00000+0  68598-4 0  9991", "line2": "2 35635  82.9556 171.6466 0020481  84.3022 286.3458 13.89927880830950"}}, "geometry": {"type": "Point", "coordinates": [166.09602475552458, -36.39924159322229]}}, {"type": "Feature", "properties": {"norad_id": 36519, "name": "COSMOS 2463", "group": "musson", "lat": -55.35474035414296, "lon": -140.38938154586245, "alt_km": 988.6924628520637, "timestamp": "2025-12-09T04:51:47.763125+00:00", "meta": {"OBJECT_NAME": "COSMOS 2463", "OBJECT_ID": "2010-017A", "EPOCH": "2025-12-08T16:01:01.162848", "MEAN_MOTION": 13.71648756, "ECCENTRICITY": 0.0034885, "INCLINATION": 82.9616, "RA_OF_ASC_NODE": 29.7051, "ARG_OF_PERICENTER": 299.7752, "MEAN_ANOMALY": 174.897, "EPHEMERIS_TYPE": 0, "CLASSIFICATION_TYPE": "U", "NORAD_CAT_ID": 36519, "ELEMENT_SET_NO": 999, "REV_AT_EPOCH": 78181, "BSTAR": 9.0474e-05, "MEAN_MOTION_DOT": 9.7e-07, "MEAN_MOTION_DDOT": 0}, "tle": {"line1": "1 36519U 10017A   25342.66737457  .00000097  00000+0  90474-4 0  9997", "line2": "2 36519  82.9616  29.7051 0034885 299.7752 174.8970 13.71648756781810"}}, "geometry": {"type": "Point", "coordinates": [-140.38938154586245, -55.35474035414296]}}]}